{
  "type": "FeatureCollection",
  "features": [
    {
      "type": "Feature",
      "properties": {
        "norad_id": 31608,
        "name": "FENGYUN 1C DEB",
        "group": "fengyun-1c-debris",
        "lat": 13.188663367264464,
        "lon": 112.3385871326065,
        "alt_km": 510.28496115724465,
        "timestamp": "2025-12-21T16:47:55.021700+00:00",
        "meta_object_name": "FENGYUN 1C DEB",
        "meta_object_id": "1999-025BZN",
        "meta_epoch": "2025-12-17T14:09:29.850912",
        "meta_mean_motion": 14.85908283,
        "meta_eccentricity": 0.01457059,
        "meta_inclination": 98.3797,
        "meta_ra_of_asc_node": 109.9897,
        "meta_arg_of_pericenter": 22.0076,
        "meta_mean_anomaly": 338.7309,
        "meta_ephemeris_type": 0,
        "meta_classification_type": "U",
        "meta_norad_cat_id": 31608,
        "meta_element_set_no": 999,
        "meta_rev_at_epoch": 98705,
        "meta_bstar": 0.00045964647,
        "meta_mean_motion_dot": 4.79e-05,
        "meta_mean_motion_ddot": 0,
        "tle_line1": "1 31608U 99025BZN 25351.58992883  .00004790  00000+0  45965-3 0  9992",
        "tle_line2": "2 31608  98.3797 109.9897 0145705  22.0076 338.7309 14.85908283987055"
      },
      "geometry": {
        "type": "Point",
        "coordinates": [
          112.3385871326065,
          13.188663367264464
        ]
      }
    },
    {
      "type": "Feature",
      "properties": {
        "norad_id": 31609,
        "name": "FENGYUN 1C DEB",
        "group": "fengyun-1c-debris",
        "lat": 69.588364458222,
        "lon": -129.6071905297242,
        "alt_km": 900.6985536231023,
        "timestamp": "2025-12-21T16:47:55.021712+00:00",
        "meta_object_name": "FENGYUN 1C DEB",
        "meta_object_id": "1999-025BZP",
        "meta_epoch": "2025-12-20T20:46:48.912960",
        "meta_mean_motion": 14.15825877,
        "meta_eccentricity": 0.0094875,
        "meta_inclination": 99.2149,
        "meta_ra_of_asc_node": 23.6668,
        "meta_arg_of_pericenter": 297.3351,
        "meta_mean_anomaly": 241.7588,
        "meta_ephemeris_type": 0,
        "meta_classification_type": "U",
        "meta_norad_cat_id": 31609,
        "meta_element_set_no": 999,
        "meta_rev_at_epoch": 66199,
        "meta_bstar": 0.0014353472,
        "meta_mean_motion_dot": 2.9e-05,
        "meta_mean_motion_ddot": 0,
        "tle_line1": "1 31609U 99025BZP 25354.86584390  .00002900  00000+0  14353-2 0  9994",
        "tle_line2": "2 31609  99.2149  23.6668 0094875 297.3351 241.7588 14.15825877661993"
      },
      "geometry": {
        "type": "Point",
        "coordinates": [
          -129.6071905297242,
          69.588364458222
        ]
      }
    },
    {
      "type": "Feature",
      "properties": {
        "norad_id": 31612,
        "name": "FENGYUN 1C DEB",
        "group": "fengyun-1c-debris",
        "lat": -67.95905580412376,
        "lon": 68.78275798933085,
        "alt_km": 372.794349945867,
        "timestamp": "2025-12-21T16:47:55.021723+00:00",
        "meta_object_name": "FENGYUN 1C DEB",
        "meta_object_id": "1999-025BZS",
        "meta_epoch": "2025-12-19T05:46:17.720832",
        "meta_mean_motion": 15.73665045,
        "meta_eccentricity": 0.0031005,
        "meta_inclination": 100.334,
        "meta_ra_of_asc_node": 271.9263,
        "meta_arg_of_pericenter": 82.9764,
        "meta_mean_anomaly": 277.5014,
        "meta_ephemeris_type": 0,
        "meta_classification_type": "U",
        "meta_norad_cat_id": 31612,
        "meta_element_set_no": 999,
        "meta_rev_at_epoch": 107,
        "meta_bstar": 0.0015977,
        "meta_mean_motion_dot": 0.00236106,
        "meta_mean_motion_ddot": 0,
        "tle_line1": "1 31612U 99025BZS 25353.24048288  .00236106  00000+0  15977-2 0  9990",
        "tle_line2": "2 31612 100.3340 271.9263 0031005  82.9764 277.5014 15.73665045  1077"
      },
      "geometry": {
        "type": "Point",
        "coordinates": [
          68.78275798933085,
          -67.95905580412376
        ]
      }
    },
    {
      "type": "Feature",
      "properties": {
        "norad_id": 31613,
        "name": "FENGYUN 1C DEB",
        "group": "fengyun-1c-debris",
        "lat": -35.21330497666427,
        "lon": -4.4379222824585325,
        "alt_km": 1198.4081906315632,
        "timestamp": "2025-12-21T16:47:55.021734+00:00",
        "meta_object_name": "FENGYUN 1C DEB",
        "meta_object_id": "1999-025BZT",
        "meta_epoch": "2025-12-20T06:18:56.611008",
        "meta_mean_motion": 13.63462471,
        "meta_eccentricity": 0.03426757,
        "meta_inclination": 98.4235,
        "meta_ra_of_asc_node": 180.3179,
        "meta_arg_of_pericenter": 86.1054,
        "meta_mean_anomaly": 277.919,
        "meta_ephemeris_type": 0,
        "meta_classification_type": "U",
        "meta_norad_cat_id": 31613,
        "meta_element_set_no": 999,
        "meta_rev_at_epoch": 91864,
        "meta_bstar": 0.00096915007,
        "meta_mean_motion_dot": 1.104e-05,
        "meta_mean_motion_ddot": 0,
        "tle_line1": "1 31613U 99025BZT 25354.26315522  .00001104  00000+0  96915-3 0  9992",
        "tle_line2": "2 31613  98.4235 180.3179 0342675  86.1054 277.9190 13.63462471918647"
      },
      "geometry": {
        "type": "Point",
        "coordinates": [
          -4.4379222824585325,
          -35.21330497666427
        ]
      }
    },
    {
      "type": "Feature",
      "properties": {
        "norad_id": 31614,
        "name": "FENGYUN 1C DEB",
        "group": "fengyun-1c-debris",
        "lat": -78.79052985264633,
        "lon": -44.28762646652197,
        "alt_km": 572.247176665147,
        "timestamp": "2025-12-21T16:47:55.021745+00:00",
        "meta_object_name": "FENGYUN 1C DEB",
        "meta_object_id": "1999-025BZU",
        "meta_epoch": "2025-12-21T06:29:11.499936",
        "meta_mean_motion": 14.9874301,
        "meta_eccentricity": 0.0019135,
        "meta_inclination": 98.9751,
        "meta_ra_of_asc_node": 262.3259,
        "meta_arg_of_pericenter": 343.1422,
        "meta_mean_anomaly": 136.8746,
        "meta_ephemeris_type": 0,
        "meta_classification_type": "U",
        "meta_norad_cat_id": 31614,
        "meta_element_set_no": 999,
        "meta_rev_at_epoch": 96557,
        "meta_bstar": 0.0061995,
        "meta_mean_motion_dot": 0.00075596,
        "meta_mean_motion_ddot": 0,
        "tle_line1": "1 31614U 99025BZU 25355.27027199  .00075596  00000+0  61995-2 0  9990",
        "tle_line2": "2 31614  98.9751 262.3259 0019135 343.1422 136.8746 14.98743010965577"
      },
      "geometry": {
        "type": "Point",
        "coordinates": [
          -44.28762646652197,
          -78.79052985264633
        ]
      }
    },
    {
      "type": "Feature",
      "properties": {
        "norad_id": 31615,
        "name": "FENGYUN 1C DEB",
        "group": "fengyun-1c-debris",
        "lat": -61.51320789018872,
        "lon": -149.5933280578755,
        "alt_km": 699.0303673710105,
        "timestamp": "2025-12-21T16:47:55.021756+00:00",
        "meta_object_name": "FENGYUN 1C DEB",
        "meta_object_id": "1999-025BZV",
        "meta_epoch": "2025-12-21T08:57:52.591104",
        "meta_mean_motion": 14.35488145,
        "meta_eccentricity": 0.0166648,
        "meta_inclination": 99.1375,
        "meta_ra_of_asc_node": 47.3142,
        "meta_arg_of_pericenter": 291.3444,
        "meta_mean_anomaly": 67.0025,
        "meta_ephemeris_type": 0,
        "meta_classification_type": "U",
        "meta_norad_cat_id": 31615,
        "meta_element_set_no": 999,
        "meta_rev_at_epoch": 65402,
        "meta_bstar": 0.0021986,
        "meta_mean_motion_dot": 7.354e-05,
        "meta_mean_motion_ddot": 0,
        "tle_line1": "1 31615U 99025BZV 25355.37352536  .00007354  00000+0  21986-2 0  9991",
        "tle_line2": "2 31615  99.1375  47.3142 0166648 291.3444  67.0025 14.35488145654021"
      },
      "geometry": {
        "type": "Point",
        "coordinates": [
          -149.5933280578755,
          -61.51320789018872
        ]
      }
    },
    {
      "type": "Feature",
      "properties": {
        "norad_id": 31618,
        "name": "FENGYUN 1C DEB",
        "group": "fengyun-1c-debris",
        "lat": -23.44711523412468,
        "lon": -44.89045838303257,
        "alt_km": 839.3111595144883,
        "timestamp": "2025-12-21T16:47:55.021767+00:00",
        "meta_object_name": "FENGYUN 1C DEB",
        "meta_object_id": "1999-025BZY",
        "meta_epoch": "2025-12-19T16:30:44.127072",
        "meta_mean_motion": 14.21030172,
        "meta_eccentricity": 0.01569395,
        "meta_inclination": 99.4436,
        "meta_ra_of_asc_node": 137.0992,
        "meta_arg_of_pericenter": 306.372,
        "meta_mean_anomaly": 52.306,
        "meta_ephemeris_type": 0,
        "meta_classification_type": "U",
        "meta_norad_cat_id": 31618,
        "meta_element_set_no": 999,
        "meta_rev_at_epoch": 70363,
        "meta_bstar": 0.0002337886,
        "meta_mean_motion_dot": 5.22e-06,
        "meta_mean_motion_ddot": 0,
        "tle_line1": "1 31618U 99025BZY 25353.68801073  .00000522  00000+0  23379-3 0  9990",
        "tle_line2": "2 31618  99.4436 137.0992 0156939 306.3720  52.3060 14.21030172703637"
      },
      "geometry": {
        "type": "Point",
        "coordinates": [
          -44.89045838303257,
          -23.44711523412468
        ]
      }
    }
  ]
}